GLOBALSTAR M069         
1 31573U 07020C   26196.94246822 -.00000116  00000+0 -21601-3 0  9991
2 31573  52.0010 170.7368 0001640 212.0895 183.4853 12.23472242882323
GLOBALSTAR M072         
1 31574U 07020D   26196.93278862 -.00000071  00000+0  17645-3 0  9992
2 31574  51.9949  23.7168 0001655  36.9818 140.9534 11.91658840878404
GLOBALSTAR M066         
1 32265U 07048C   26196.66044347 -.00000052  00000+0  36375-3 0  9999
2 32265  51.9609 336.1749 0005594 102.7371 269.9817 12.30389489863733
GLOBALSTAR M079         
1 37188U 10054A   26196.89887796 -.00000104  00000+0 -28003-5 0  9997
2 37188  52.0055  21.2674 0001128  78.9268  67.7048 12.62266431726178
GLOBALSTAR M074         
1 37189U 10054B   26196.92915834 -.00000103  00000+0  68052-5 0  9993
2 37189  52.0032  20.4362 0000869  93.4873  70.7747 12.62262033726785
GLOBALSTAR M076         
1 37190U 10054C   26196.76380812 -.00000096  00000+0  46166-4 0  9991
2 37190  52.0044  21.1451 0001095  93.6543 278.7739 12.62262357726482
GLOBALSTAR M077         
1 37191U 10054D   26196.89179644 -.00000103  00000+0 -45728-3 0  9997
2 37191  51.9959 106.4385 0002257 226.4798 210.2502 11.67547421724498
GLOBALSTAR M075         
1 37192U 10054E   26196.95573411 -.00000089  00000+0  81993-4 0  9992
2 37192  51.9955  62.5987 0000763  65.9396  39.5857 12.62267849725579
GLOBALSTAR M073         
1 37193U 10054F   26196.81062973 -.00000104  00000+0 -30190-5 0  9997
2 37193  52.0081 337.1637 0001062  96.8782  67.2732 12.62266879727541
GLOBALSTAR M083         
1 37739U 11033A   26196.57281197 -.00000074  00000+0  16682-3 0  9998
2 37739  51.9866 286.0787 0000770 107.2171 357.0003 12.62264174696539
GLOBALSTAR M088         
1 37740U 11033B   26196.92145029 -.00000114  00000+0 -59868-4 0  9992
2 37740  52.0189 191.5125 0000044  96.0070 271.9575 12.62269497692126
GLOBALSTAR M091         
1 37741U 11033C   26196.65357742 -.00000121  00000+0 -98039-4 0  9991
2 37741  51.9981 155.2505 0000434  24.3021 146.4094 12.62264251692874
GLOBALSTAR M085         
1 37742U 11033D   26196.93724580 -.00000096  00000+0  44021-4 0  9993
2 37742  52.0124 105.7043 0000790  42.2244  38.1585 12.62264333693429
GLOBALSTAR M081         
1 37743U 11033E   26196.96382687 -.00000103  00000+0  28169-5 0  9990
2 37743  51.9954 108.0266 0000678  56.2486  24.8320 12.62265271693577
GLOBALSTAR M089         
1 37744U 11033F   26196.92891089 -.00000089  00000+0  82498-4 0  9995
2 37744  51.9937  62.2863 0000701  90.5312  12.9171 12.62267597694418
GLOBALSTAR M084         
1 38040U 11080A   26196.46204899 -.00000085  00000+0  10404-3 0  9996
2 38040  52.0021 291.2057 0000824 129.9842 310.7473 12.62263504672339
GLOBALSTAR M080         
1 38041U 11080B   26196.43294816 -.00000083  00000+0  11595-3 0  9992
2 38041  52.0069 293.0224 0000298  83.1716 355.0622 12.62257435672451
GLOBALSTAR M082         
1 38042U 11080C   26196.45370036 -.00000072  00000+0  17723-3 0  9991
2 38042  52.0062 248.4631 0000194  88.4428  14.0807 12.62264246673168
GLOBALSTAR M092         
1 38043U 11080D   26196.83693785 -.00000088  00000+0  88256-4 0  9990
2 38043  52.0105 337.6936 0000779 103.6458  60.5815 12.62267811671667
GLOBALSTAR M090         
1 38044U 11080E   26196.31700969 -.00000053  00000+0  28459-3 0  9997
2 38044  52.0106 242.8440 0000427  91.1185 348.7415 12.62269578673261
GLOBALSTAR M086         
1 38045U 11080F   26196.42344416 -.00000087  00000+0  91631-4 0  9991
2 38045  51.9879 242.4025 0001511 112.0880 355.3845 12.62287762673224
GLOBALSTAR M097         
1 39072U 13005A   26196.90669932 -.00000127  00000+0 -12785-3 0  9995
2 39072  52.0027 155.9101 0000456  40.4806 319.6095 12.62271369620536
GLOBALSTAR M093         
1 39073U 13005B   26196.80075203 -.00000117  00000+0 -76055-4 0  9997
2 39073  52.0089 149.5905 0000668  45.0798 315.0123 12.62266309620475
GLOBALSTAR M094         
1 39074U 13005C   26196.80060750 -.00000104  00000+0  11299-6 0  9995
2 39074  51.9974  63.6800 0000996  63.3164 296.7804 12.62264174622089
GLOBALSTAR M096         
1 39075U 13005D   26196.97250249 -.00000097  00000+0  36869-4 0  9997
2 39075  52.0071 111.9802 0000758  43.7905 316.3022 12.62265716621027
GLOBALSTAR M078         
1 39076U 13005E   26196.94563202 -.00000120  00000+0 -88472-4 0  9996
2 39076  51.9845 196.0329 0000851 340.3417  19.7416 12.62260137619649
GLOBALSTAR M095         
1 39077U 13005F   26196.73475766 -.00000119  00000+0 -85055-4 0  9993
2 39077  52.0054 194.3192 0000468  13.1932 346.8947 12.62264145619471
GLOBALSTAR M087         
1 52888U 22064A   26196.66868377 -.00000103  00000+0  43333-5 0  9995
2 52888  52.0013 335.7423 0000918  85.2007 274.8964 12.62269258194738
