OBJECT_NAME,OBJECT_ID,EPOCH,MEAN_MOTION,ECCENTRICITY,INCLINATION,RA_OF_ASC_NODE,ARG_OF_PERICENTER,MEAN_ANOMALY,EPHEMERIS_TYPE,CLASSIFICATION_TYPE,NORAD_CAT_ID,ELEMENT_SET_NO,REV_AT_EPOCH,BSTAR,MEAN_MOTION_DOT,MEAN_MOTION_DDOT
GLOBALSTAR M069,2007-020C,2026-07-15T22:37:09.254208,12.23472242,.000164,52.0010,170.7368,212.0895,183.4853,0,U,31573,999,88232,-.21601392E-3,-.116E-5,0
GLOBALSTAR M072,2007-020D,2026-07-15T22:23:12.936768,11.91658840,.00016556,51.9949,23.7168,36.9818,140.9534,0,U,31574,999,87840,.17644735E-3,-.71E-6,0
GLOBALSTAR M066,2007-048C,2026-07-15T15:51:02.315808,12.30389489,.00055941,51.9609,336.1749,102.7371,269.9817,0,U,32265,999,86373,.36375337E-3,-.52E-6,0
GLOBALSTAR M079,2010-054A,2026-07-15T21:34:23.055744,12.62266431,.00011289,52.0055,21.2674,78.9268,67.7048,0,U,37188,999,72617,-.2800343E-5,-.104E-5,0
GLOBALSTAR M074,2010-054B,2026-07-15T22:17:59.280576,12.62262033,.0000869,52.0032,20.4362,93.4873,70.7747,0,U,37189,999,72678,.6805205E-5,-.103E-5,0
GLOBALSTAR M076,2010-054C,2026-07-15T18:19:53.021568,12.62262357,.00010953,52.0044,21.1451,93.6543,278.7739,0,U,37190,999,72648,.46166245E-4,-.96E-6,0
GLOBALSTAR M077,2010-054D,2026-07-15T21:24:11.212416,11.67547421,.00022576,51.9959,106.4385,226.4798,210.2502,0,U,37191,999,72449,-.45728136E-3,-.103E-5,0
GLOBALSTAR M075,2010-054E,2026-07-15T22:56:15.427104,12.62267849,.00007632,51.9955,62.5987,65.9396,39.5857,0,U,37192,999,72557,.81993416E-4,-.89E-6,0
GLOBALSTAR M073,2010-054F,2026-07-15T19:27:18.408672,12.62266879,.00010625,52.0081,337.1637,96.8782,67.2732,0,U,37193,999,72754,-.3019033E-5,-.104E-5,0
GLOBALSTAR M083,2011-033A,2026-07-15T13:44:50.954208,12.62264174,.000077,51.9866,286.0787,107.2171,357.0003,0,U,37739,999,69653,.16682E-3,-.74E-6,0
GLOBALSTAR M088,2011-033B,2026-07-15T22:06:53.305056,12.62269497,.00000446,52.0189,191.5125,96.0070,271.9575,0,U,37740,999,69212,-.59868245E-4,-.114E-5,0
GLOBALSTAR M091,2011-033C,2026-07-15T15:41:09.089088,12.62264251,.0000434,51.9981,155.2505,24.3021,146.4094,0,U,37741,999,69287,-.98039E-4,-.121E-5,0
GLOBALSTAR M085,2011-033D,2026-07-15T22:29:38.037120,12.62264333,.000079,52.0124,105.7043,42.2244,38.1585,0,U,37742,999,69342,.44021139E-4,-.96E-6,0
GLOBALSTAR M081,2011-033E,2026-07-15T23:07:54.641568,12.62265271,.00006781,51.9954,108.0266,56.2486,24.8320,0,U,37743,999,69357,.2816872E-5,-.103E-5,0
GLOBALSTAR M089,2011-033F,2026-07-15T22:17:37.900896,12.62267597,.00007012,51.9937,62.2863,90.5312,12.9171,0,U,37744,999,69441,.82497844E-4,-.89E-6,0
GLOBALSTAR M084,2011-080A,2026-07-15T11:05:21.032736,12.62263504,.00008243,52.0021,291.2057,129.9842,310.7473,0,U,38040,999,67233,.10404154E-3,-.85E-6,0
GLOBALSTAR M080,2011-080B,2026-07-15T10:23:26.721024,12.62257435,.00002984,52.0069,293.0224,83.1716,355.0622,0,U,38041,999,67245,.11594858E-3,-.83E-6,0
GLOBALSTAR M082,2011-080C,2026-07-15T10:53:19.711104,12.62264246,.0000194,52.0062,248.4631,88.4428,14.0807,0,U,38042,999,67316,.17723354E-3,-.72E-6,0
GLOBALSTAR M092,2011-080D,2026-07-15T20:05:11.430240,12.62267811,.00007791,52.0105,337.6936,103.6458,60.5815,0,U,38043,999,67166,.88256051E-4,-.88E-6,0
GLOBALSTAR M090,2011-080E,2026-07-15T07:36:29.637216,12.62269578,.00004273,52.0106,242.8440,91.1185,348.7415,0,U,38044,999,67326,.28459492E-3,-.53E-6,0
GLOBALSTAR M086,2011-080F,2026-07-15T10:09:45.575424,12.62287762,.0001511,51.9879,242.4025,112.0880,355.3845,0,U,38045,999,67322,.91630565E-4,-.87E-6,0
GLOBALSTAR M097,2013-005A,2026-07-15T21:45:38.821248,12.62271369,.00004563,52.0027,155.9101,40.4806,319.6095,0,U,39072,999,62053,-.12785122E-3,-.127E-5,0
GLOBALSTAR M093,2013-005B,2026-07-15T19:13:04.975392,12.62266309,.00006689,52.0089,149.5905,45.0798,315.0123,0,U,39073,999,62047,-.76055192E-4,-.117E-5,0
GLOBALSTAR M094,2013-005C,2026-07-15T19:12:52.488000,12.62264174,.00009964,51.9974,63.6800,63.3164,296.7804,0,U,39074,999,62208,.112992E-6,-.104E-5,0
GLOBALSTAR M096,2013-005D,2026-07-15T23:20:24.215136,12.62265716,.00007588,52.0071,111.9802,43.7905,316.3022,0,U,39075,999,62102,.36868834E-4,-.97E-6,0
GLOBALSTAR M078,2013-005E,2026-07-15T22:41:42.606528,12.62260137,.00008517,51.9845,196.0329,340.3417,19.7416,0,U,39076,999,61964,-.88472218E-4,-.12E-5,0
GLOBALSTAR M095,2013-005F,2026-07-15T17:38:03.061824,12.62264145,.00004688,52.0054,194.3192,13.1932,346.8947,0,U,39077,999,61947,-.85055258E-4,-.119E-5,0
GLOBALSTAR M087,2022-064A,2026-07-15T16:02:54.277728,12.62269258,.00009182,52.0013,335.7423,85.2007,274.8964,0,U,52888,999,19473,.4333312E-5,-.103E-5,0
